{
"type": "FeatureCollection",
"name": "aoi_circle",
"crs": { "type": "name", "properties": { "name": "urn:ogc:def:crs:OGC:1.3:CRS84" } },
"features": [
{ "type": "Feature", "properties": { "lat": -6.1799849294994065, "lon": 106.82189361088099, "area_km2": 5.0, "radius_km": 1.2615662610100802 }, "geometry": { "type": "Polygon", "coordinates": [ [ [ 106.833290977577676, -6.179945747673717 ], [ 106.833239945884543, -6.181063977044301 ], [ 106.833079643140479, -6.182171815889486 ], [ 106.832811612429026, -6.183258595215057 ], [ 106.832438434326633, -6.184313848764852 ], [ 106.831963702077431, -6.185327413815539 ], [ 106.831391987014015, -6.186289529051398 ], [ 106.830728794556023, -6.187190928575989 ], [ 106.829980511209556, -6.18802293115558 ], [ 106.829154343077207, -6.188777523834316 ], [ 106.828258246469844, -6.189447439115535 ], [ 106.827300851288513, -6.190026224965524 ], [ 106.826291377913677, -6.190508306964859 ], [ 106.825239548402578, -6.19088904200841 ], [ 106.824155492849798, -6.191164763036086 ], [ 106.823049651813449, -6.191332814363054 ], [ 106.821932675747234, -6.191391577268541 ], [ 106.820815322407569, -6.19134048559632 ], [ 106.819708353224925, -6.191180031216326 ], [ 106.818622429637969, -6.190911759294156 ], [ 106.817568010390488, -6.190538253414013 ], [ 106.816555250780667, -6.190063110698197 ], [ 106.815593904834472, -6.189490907162597 ], [ 106.814693231346084, -6.188827153642049 ], [ 106.813861904691137, -6.18807824271012 ], [ 106.813107931272469, -6.187251387104969 ], [ 106.812438572403778, -6.186354550254493 ], [ 106.811860274373785, -6.18539636957044 ], [ 106.811378606365281, -6.184386073250699 ], [ 106.81099820682644, -6.183333391391495 ], [ 106.810722738810739, -6.182248462266381 ], [ 106.810554854715306, -6.181141734674743 ], [ 106.810496170756508, -6.180023867301232 ], [ 106.810547251428062, -6.178905626055583 ], [ 106.81070760409014, -6.177797780382022 ], [ 106.81097568374085, -6.176710999537172 ], [ 106.811348907923033, -6.175655749835585 ], [ 106.811823681621746, -6.174642193852703 ], [ 106.81239543191154, -6.173680092555779 ], [ 106.813058652019038, -6.172778711305588 ], [ 106.813806954375536, -6.171946730633585 ], [ 106.814633132147961, -6.171192162653726 ], [ 106.815529228654938, -6.170522273913519 ], [ 106.816486613999302, -6.169943515426711 ], [ 106.817496068178599, -6.169461460561177 ], [ 106.818547869873271, -6.169080751379313 ], [ 106.819631890057707, -6.168805053947358 ], [ 106.820737689532976, -6.168637023043369 ], [ 106.821854619442561, -6.168578276603286 ], [ 106.822971923803806, -6.168629380150572 ], [ 106.824078843068463, -6.168789841358945 ], [ 106.825164717716135, -6.16905811480039 ], [ 106.826219090883825, -6.169431616832324 ], [ 106.827231809044108, -6.169906750480334 ], [ 106.828193119763938, -6.170478940076999 ], [ 106.829093765602835, -6.171142675323146 ], [ 106.829925073247765, -6.171891564347486 ], [ 106.830679037026343, -6.172718395253756 ], [ 106.831348395995434, -6.173615205563224 ], [ 106.831926703862422, -6.174573358884096 ], [ 106.832408391066437, -6.175583628070036 ], [ 106.83278881842169, -6.176636284067555 ], [ 106.833064321805736, -6.177721189596951 ], [ 106.833232247462263, -6.178827896765608 ], [ 106.833290977577676, -6.179945747673717 ] ] ] } }
]
}
